{
"type": "FeatureCollection",
"name": "non sawah",
"crs": { "type": "name", "properties": { "name": "urn:ogc:def:crs:OGC:1.3:CRS84" } },
"features": [
{"type":"Feature","properties":{"FID":null,"label":"non sawah","id":1},"geometry":{"type":"MultiPolygon","coordinates":[[[[112.907168,-6.8963652],[112.9071101,-6.896279],[112.9074631,-6.8956931],[112.9080648,-6.8959803],[112.9075933,-6.8964585],[112.907168,-6.8963652]]]]}},
{"type":"Feature","properties":{"FID":null,"label":"non sawah","id":2},"geometry":{"type":"MultiPolygon","coordinates":[[[[112.9061584,-6.8962977],[112.906345,-6.896101],[112.9066285,-6.896101],[112.9065128,-6.8963882],[112.9061584,-6.8962977]]]]}},
{"type":"Feature","properties":{"FID":null,"label":"non sawah","id":3},"geometry":{"type":"MultiPolygon","coordinates":[[[[112.9056565,-6.8969281],[112.9054193,-6.896796],[112.9053267,-6.8964743],[112.9058011,-6.8966409],[112.9056565,-6.8969281]]]]}},
{"type":"Feature","properties":{"FID":null,"label":"non sawah","id":4},"geometry":{"type":"MultiPolygon","coordinates":[[[[112.9051242,-6.8953887],[112.9051416,-6.8950556],[112.9056449,-6.8951065],[112.9056681,-6.8954282],[112.9051242,-6.8953887]]]]}},
{"type":"Feature","properties":{"FID":null,"label":"non sawah","id":5},"geometry":{"type":"MultiPolygon","coordinates":[[[[112.9089428,-6.8973639],[112.9090817,-6.8968067],[112.9094577,-6.8965597],[112.909533,-6.897002],[112.9093825,-6.8971858],[112.9091395,-6.8974213],[112.9089428,-6.8973639]]]]}},
{"type":"Feature","properties":{"FID":null,"label":"non sawah","id":6},"geometry":{"type":"MultiPolygon","coordinates":[[[[112.9079766,-6.8977717],[112.9077567,-6.8981451],[112.9073691,-6.8976281],[112.9078956,-6.897473],[112.9078435,-6.8977085],[112.9079766,-6.8977717]]]]}},
{"type":"Feature","properties":{"FID":null,"label":"non sawah","id":7},"geometry":{"type":"MultiPolygon","coordinates":[[[[112.9081559,-6.8963644],[112.9078782,-6.8963127],[112.9081097,-6.8960313],[112.9087056,-6.8960485],[112.9085899,-6.8962553],[112.9081559,-6.8963644]]]]}},
{"type":"Feature","properties":{"FID":null,"label":"non sawah","id":8},"geometry":{"type":"MultiPolygon","coordinates":[[[[112.9077278,-6.8969963],[112.9075396,-6.8965915],[112.9079214,-6.8963905],[112.9083785,-6.8966777],[112.908095,-6.897275],[112.9077278,-6.8969963]]]]}},
{"type":"Feature","properties":{"FID":null,"label":"non sawah","id":9},"geometry":{"type":"MultiPolygon","coordinates":[[[[112.9063729,-6.8979139],[112.906315,-6.8975233],[112.9065233,-6.8976037],[112.9063729,-6.8979139]]]]}},
{"type":"Feature","properties":{"FID":null,"label":"non sawah","id":10},"geometry":{"type":"MultiPolygon","coordinates":[[[[112.910482,-6.8970725],[112.910158,-6.8971012],[112.9099902,-6.8966302],[112.910239,-6.896567],[112.910482,-6.8970725]]]]}},
{"type":"Feature","properties":{"FID":null,"label":"non sawah","id":11},"geometry":{"type":"MultiPolygon","coordinates":[[[[112.9090201,-6.8977168],[112.9091242,-6.8975157],[112.9096218,-6.8973549],[112.9095199,-6.8978923],[112.9090201,-6.8977168]]]]}},
{"type":"Feature","properties":{"FID":null,"label":"non sawah","id":12},"geometry":{"type":"MultiPolygon","coordinates":[[[[112.9090668,-6.8985815],[112.9089453,-6.8984724],[112.9089742,-6.8981622],[112.9091189,-6.8982024],[112.9092462,-6.8983805],[112.9090668,-6.8985815]]]]}},
{"type":"Feature","properties":{"FID":null,"label":"non sawah","id":13},"geometry":{"type":"MultiPolygon","coordinates":[[[[112.9060917,-6.8957816],[112.9060306,-6.8950493],[112.9063778,-6.8950264],[112.9063463,-6.8955404],[112.9060917,-6.8957816]]]]}},
{"type":"Feature","properties":{"FID":null,"label":"non sawah","id":14},"geometry":{"type":"MultiPolygon","coordinates":[[[[112.9055468,-6.8963666],[112.9053675,-6.8964412],[112.9054427,-6.8960736],[112.9056162,-6.8962057],[112.9055468,-6.8963666]]]]}},
{"type":"Feature","properties":{"FID":null,"label":"non sawah","id":15},"geometry":{"type":"MultiPolygon","coordinates":[[[[112.9042045,-6.8962057],[112.9041524,-6.8960506],[112.9043318,-6.8959185],[112.9045054,-6.8961023],[112.9042045,-6.8962057]]]]}},
{"type":"Feature","properties":{"FID":null,"label":"non sawah","id":16},"geometry":{"type":"MultiPolygon","coordinates":[[[[112.907404,-6.8955624],[112.9071495,-6.895436],[112.9073462,-6.8949708],[112.9076644,-6.8949708],[112.907404,-6.8955624]]]]}},
{"type":"Feature","properties":{"FID":null,"label":"non sawah","id":17},"geometry":{"type":"MultiPolygon","coordinates":[[[[112.9086711,-6.8958037],[112.9084108,-6.8958151],[112.9080983,-6.8958037],[112.9081388,-6.8955337],[112.9086191,-6.8954705],[112.9086711,-6.8958037]]]]}},
{"type":"Feature","properties":{"FID":null,"label":"non sawah","id":18},"geometry":{"type":"MultiPolygon","coordinates":[[[[112.9046211,-6.8953154],[112.9047426,-6.8951259],[112.9050955,-6.8951431],[112.905055,-6.8954705],[112.9046211,-6.8953154]]]]}},
{"type":"Feature","properties":{"FID":null,"label":"non sawah","id":19},"geometry":{"type":"MultiPolygon","coordinates":[[[[112.9057554,-6.8960405],[112.9054835,-6.8960175],[112.9054256,-6.8959486],[112.9056513,-6.8957246],[112.9058017,-6.8957878],[112.9057554,-6.8960405]]]]}},
{"type":"Feature","properties":{"FID":null,"label":"non sawah","id":20},"geometry":{"type":"MultiPolygon","coordinates":[[[[112.9063689,-6.8985548],[112.9065526,-6.8982205],[112.9068419,-6.8983009],[112.9067493,-6.8986858],[112.9065989,-6.8987375],[112.9063689,-6.8985548]]]]}},
{"type":"Feature","properties":{"FID":null,"label":"non sawah","id":21},"geometry":{"type":"MultiPolygon","coordinates":[[[[112.9059743,-6.8986283],[112.9056385,-6.8985641],[112.9056883,-6.8982136],[112.9060784,-6.898255],[112.9061363,-6.8985192],[112.9059743,-6.8986283]]]]}},
{"type":"Feature","properties":{"FID":null,"label":"non sawah","id":22},"geometry":{"type":"MultiPolygon","coordinates":[[[[112.9056211,-6.8981563],[112.9052277,-6.8980529],[112.9053724,-6.8978633],[112.9058815,-6.8978404],[112.9058063,-6.8980127],[112.9056211,-6.8981563]]]]}},
{"type":"Feature","properties":{"FID":null,"label":"non sawah","id":23},"geometry":{"type":"MultiPolygon","coordinates":[[[[112.9049963,-6.8973923],[112.9056269,-6.8973923],[112.9056848,-6.8977944],[112.9051351,-6.8977944],[112.9049963,-6.8973923]]]]}},
{"type":"Feature","properties":{"FID":null,"label":"non sawah","id":24},"geometry":{"type":"MultiPolygon","coordinates":[[[[112.9077119,-6.895442],[112.9077031,-6.8949744],[112.9084611,-6.8949629],[112.9085305,-6.8954454],[112.9077119,-6.895442]]]]}},
{"type":"Feature","properties":{"FID":null,"label":"non sawah","id":25},"geometry":{"type":"MultiPolygon","coordinates":[[[[112.9045899,-6.8988669],[112.904532,-6.898597],[112.9049255,-6.8986487],[112.9049544,-6.8988497],[112.9045899,-6.8988669]]]]}},
{"type":"Feature","properties":{"FID":null,"label":"non sawah","id":26},"geometry":{"type":"MultiPolygon","coordinates":[[[[112.9040923,-6.8989818],[112.9038908,-6.8988983],[112.9040807,-6.8986372],[112.904208,-6.898775],[112.9040923,-6.8989818]]]]}},
{"type":"Feature","properties":{"FID":null,"label":"non sawah","id":27},"geometry":{"type":"MultiPolygon","coordinates":[[[[112.9069399,-6.8994497],[112.9069052,-6.8992946],[112.9074837,-6.8992717],[112.9074606,-6.8995244],[112.9069399,-6.8994497]]]]}},
{"type":"Feature","properties":{"FID":null,"label":"non sawah","id":28},"geometry":{"type":"MultiPolygon","coordinates":[[[[112.9023904,-6.8968226],[112.9026089,-6.8966476],[112.9027358,-6.8967526],[112.9026512,-6.8969696],[112.9023904,-6.8968226]]]]}},
{"type":"Feature","properties":{"FID":null,"label":"non sawah","id":29},"geometry":{"type":"MultiPolygon","coordinates":[[[[112.9024327,-6.8974525],[112.9021013,-6.8970186],[112.9024891,-6.8969416],[112.9025948,-6.8972146],[112.9024327,-6.8974525]]]]}},
{"type":"Feature","properties":{"FID":null,"label":"non sawah","id":30},"geometry":{"type":"MultiPolygon","coordinates":[[[[112.9028523,-6.8961513],[112.9025562,-6.8960603],[112.9027043,-6.8956963],[112.9029652,-6.8957523],[112.9028523,-6.8961513]]]]}},
{"type":"Feature","properties":{"FID":null,"label":"non sawah","id":31},"geometry":{"type":"MultiPolygon","coordinates":[[[[112.90236,-6.8963257],[112.902728,-6.8962246],[112.902681,-6.8966289],[112.9024931,-6.8965045],[112.90236,-6.8963257]]]]}},
{"type":"Feature","properties":{"FID":null,"label":"non sawah","id":32},"geometry":{"type":"MultiPolygon","coordinates":[[[[112.9028633,-6.897131],[112.9029025,-6.8968822],[112.9030199,-6.8970532],[112.9028633,-6.897131]]]]}},
{"type":"Feature","properties":{"FID":null,"label":"non sawah","id":33},"geometry":{"type":"MultiPolygon","coordinates":[[[[112.9027693,-6.898336],[112.9032862,-6.8980483],[112.9032549,-6.8986392],[112.9030325,-6.8985487],[112.9027693,-6.898336]]]]}},
{"type":"Feature","properties":{"FID":null,"label":"non sawah","id":34},"geometry":{"type":"MultiPolygon","coordinates":[[[[112.9023512,-6.8979889],[112.902453,-6.8977479],[112.9027506,-6.8978878],[112.9026331,-6.89809],[112.9023512,-6.8979889]]]]}},
{"type":"Feature","properties":{"FID":null,"label":"non sawah","id":35},"geometry":{"type":"MultiPolygon","coordinates":[[[[112.9016464,-6.8983077],[112.9019048,-6.89809],[112.9020849,-6.8981133],[112.9020614,-6.8985642],[112.9016464,-6.8983077]]]]}},
{"type":"Feature","properties":{"FID":null,"label":"non sawah","id":36},"geometry":{"type":"MultiPolygon","coordinates":[[[[112.9014193,-6.8977868],[112.9018422,-6.8971415],[112.9018108,-6.8979889],[112.9014193,-6.8977868]]]]}},
{"type":"Feature","properties":{"FID":null,"label":"non sawah","id":37},"geometry":{"type":"MultiPolygon","coordinates":[[[[112.9024686,-6.8984398],[112.9027036,-6.8984087],[112.902868,-6.8988829],[112.9025783,-6.8990151],[112.9022415,-6.8986575],[112.9024686,-6.8984398]]]]}},
{"type":"Feature","properties":{"FID":null,"label":"non sawah","id":38},"geometry":{"type":"MultiPolygon","coordinates":[[[[112.9021162,-6.8968072],[112.901709,-6.8967528],[112.9017012,-6.8965118],[112.9019596,-6.8963641],[112.9023042,-6.8965118],[112.9021162,-6.8968072]]]]}},
{"type":"Feature","properties":{"FID":null,"label":"non sawah","id":39},"geometry":{"type":"MultiPolygon","coordinates":[[[[112.9021162,-6.8954467],[112.9025826,-6.8955151],[112.9025982,-6.8958494],[112.9024416,-6.8959816],[112.9020031,-6.8957017],[112.9021162,-6.8954467]]]]}},
{"type":"Feature","properties":{"FID":null,"label":"non sawah","id":40},"geometry":{"type":"MultiPolygon","coordinates":[[[[112.9091117,-6.8959837],[112.9095275,-6.8958738],[112.9098408,-6.896024],[112.9098486,-6.8962417],[112.909185,-6.8962517],[112.9091117,-6.8959837]]]]}},
{"type":"Feature","properties":{"FID":null,"label":"non sawah","id":41},"geometry":{"type":"MultiPolygon","coordinates":[[[[112.9055045,-6.8944247],[112.9058804,-6.894347],[112.9058569,-6.8948212],[112.9056063,-6.8949145],[112.9055045,-6.8944247]]]]}},
{"type":"Feature","properties":{"FID":null,"label":"non sawah","id":42},"geometry":{"type":"MultiPolygon","coordinates":[[[[112.905066,-6.894689],[112.9054732,-6.8947512],[112.905481,-6.8949611],[112.9050425,-6.8949145],[112.905066,-6.894689]]]]}},
{"type":"Feature","properties":{"FID":null,"label":"non sawah","id":43},"geometry":{"type":"MultiPolygon","coordinates":[[[[112.9067731,-6.8944869],[112.907102,-6.8945491],[112.9070923,-6.8948039],[112.9067399,-6.8948039],[112.9067731,-6.8944869]]]]}},
{"type":"Feature","properties":{"FID":null,"label":"non sawah","id":44},"geometry":{"type":"MultiPolygon","coordinates":[[[[112.909459,-6.8954562],[112.9097566,-6.8954408],[112.9098818,-6.8958295],[112.9094825,-6.8957751],[112.909459,-6.8954562]]]]}},
{"type":"Feature","properties":{"FID":null,"label":"non sawah","id":45},"geometry":{"type":"MultiPolygon","coordinates":[[[[112.9097962,-6.8949943],[112.9103397,-6.8948697],[112.9103397,-6.8955412],[112.9100891,-6.8957278],[112.9097962,-6.8949943]]]]}},
{"type":"Feature","properties":{"FID":null,"label":"non sawah","id":46},"geometry":{"type":"MultiPolygon","coordinates":[[[[112.9089144,-6.8948803],[112.909306,-6.8949075],[112.9091572,-6.8952496],[112.9088988,-6.8952107],[112.9089144,-6.8948803]]]]}},
{"type":"Feature","properties":{"FID":null,"label":"non sawah","id":47},"geometry":{"type":"MultiPolygon","coordinates":[[[[112.910418,-6.8955528],[112.9107625,-6.8953896],[112.9110914,-6.8953896],[112.9108984,-6.8961233],[112.910418,-6.8955528]]]]}},
{"type":"Feature","properties":{"FID":null,"label":"non sawah","id":48},"geometry":{"type":"MultiPolygon","coordinates":[[[[112.9102484,-6.8937988],[112.9105382,-6.8937755],[112.9106478,-6.8942964],[112.9102484,-6.8945063],[112.9102484,-6.8937988]]]]}},
{"type":"Feature","properties":{"FID":null,"label":"non sawah","id":49},"geometry":{"type":"MultiPolygon","coordinates":[[[[112.9110707,-6.8962088],[112.9115797,-6.8963332],[112.9115249,-6.8965509],[112.9110942,-6.896411],[112.9110707,-6.8962088]]]]}},
{"type":"Feature","properties":{"FID":null,"label":"non sawah","id":50},"geometry":{"type":"MultiPolygon","coordinates":[[[[112.9086938,-6.896688],[112.9088739,-6.8966958],[112.9088426,-6.8974655],[112.9086155,-6.8974421],[112.9086938,-6.896688]]]]}}
]
}
