{
"type": "FeatureCollection",
"name": "sawah",
"crs": { "type": "name", "properties": { "name": "urn:ogc:def:crs:OGC:1.3:CRS84" } },
"features": [
{"type":"Feature","properties":{"FID":null,"label":"sawah","id":1},"geometry":{"type":"MultiPolygon","coordinates":[[[[112.9068669,-6.8971033],[112.9068761,-6.8967091],[112.9070285,-6.8967825],[112.9070654,-6.8970529],[112.9068669,-6.8971033]]]]}},
{"type":"Feature","properties":{"FID":null,"label":"sawah","id":2},"geometry":{"type":"MultiPolygon","coordinates":[[[[112.9062852,-6.8973921],[112.9063683,-6.8971446],[112.9066268,-6.8972912],[112.9065714,-6.8974746],[112.9062852,-6.8973921]]]]}},
{"type":"Feature","properties":{"FID":null,"label":"sawah","id":3},"geometry":{"type":"MultiPolygon","coordinates":[[[[112.9061189,-6.8966816],[112.9063498,-6.8965487],[112.9062898,-6.8968329],[112.9061189,-6.8966816]]]]}},
{"type":"Feature","properties":{"FID":null,"label":"sawah","id":4},"geometry":{"type":"MultiPolygon","coordinates":[[[[112.9065714,-6.8966404],[112.9066314,-6.8963928],[112.9067884,-6.8965762],[112.9065714,-6.8966404]]]]}},
{"type":"Feature","properties":{"FID":null,"label":"sawah","id":5},"geometry":{"type":"MultiPolygon","coordinates":[[[[112.9060127,-6.8966449],[112.9058789,-6.8964845],[112.9059343,-6.8962828],[112.9061513,-6.8963745],[112.9060127,-6.8966449]]]]}},
{"type":"Feature","properties":{"FID":null,"label":"sawah","id":6},"geometry":{"type":"MultiPolygon","coordinates":[[[[112.9061236,-6.8959437],[112.9062067,-6.8958016],[112.9062805,-6.8958153],[112.9063406,-6.8957466],[112.9064052,-6.8957924],[112.9063821,-6.8960124],[112.9062944,-6.8960582],[112.9061236,-6.8959437]]]]}},
{"type":"Feature","properties":{"FID":null,"label":"sawah","id":7},"geometry":{"type":"MultiPolygon","coordinates":[[[[112.9061143,-6.8975387],[112.906022,-6.8973783],[112.9060774,-6.8970666],[112.9062621,-6.897085],[112.9063359,-6.8971675],[112.9062205,-6.8975479],[112.9061143,-6.8975387]]]]}},
{"type":"Feature","properties":{"FID":null,"label":"sawah","id":8},"geometry":{"type":"MultiPolygon","coordinates":[[[[112.9069454,-6.8966083],[112.9069731,-6.8963974],[112.9071485,-6.8964066],[112.9071624,-6.8965854],[112.9069454,-6.8966083]]]]}},
{"type":"Feature","properties":{"FID":null,"label":"sawah","id":9},"geometry":{"type":"MultiPolygon","coordinates":[[[[112.9067284,-6.8957466],[112.9067607,-6.8955403],[112.90694,-6.8954089],[112.9072724,-6.895583],[112.9072863,-6.8957206],[112.9069492,-6.8958306],[112.9067284,-6.8957466]]]]}},
{"type":"Feature","properties":{"FID":null,"label":"sawah","id":10},"geometry":{"type":"MultiPolygon","coordinates":[[[[112.9067692,-6.8975219],[112.9068892,-6.8971552],[112.9070277,-6.8970773],[112.9071755,-6.897169],[112.9072124,-6.8972973],[112.9071293,-6.8975448],[112.9067692,-6.8975219]]]]}},
{"type":"Feature","properties":{"FID":null,"label":"sawah","id":11},"geometry":{"type":"MultiPolygon","coordinates":[[[[112.9072733,-6.8982803],[112.9072733,-6.8981015],[112.907458,-6.8981244],[112.9074395,-6.8982894],[112.9072733,-6.8982803]]]]}},
{"type":"Feature","properties":{"FID":null,"label":"sawah","id":12},"geometry":{"type":"MultiPolygon","coordinates":[[[[112.9059067,-6.8978403],[112.9059847,-6.8975744],[112.9061417,-6.8976202],[112.9060909,-6.8978403],[112.9059067,-6.8978403]]]]}},
{"type":"Feature","properties":{"FID":null,"label":"sawah","id":13},"geometry":{"type":"MultiPolygon","coordinates":[[[[112.9088601,-6.8970602],[112.9088555,-6.8968218],[112.9089709,-6.8967347],[112.9090725,-6.8968447],[112.9089755,-6.8970235],[112.9088601,-6.8970602]]]]}},
{"type":"Feature","properties":{"FID":null,"label":"sawah","id":14},"geometry":{"type":"MultiPolygon","coordinates":[[[[112.9103606,-6.8965471],[112.9104022,-6.8962584],[112.9105869,-6.8961759],[112.9105592,-6.8966021],[112.9103606,-6.8965471]]]]}},
{"type":"Feature","properties":{"FID":null,"label":"sawah","id":15},"geometry":{"type":"MultiPolygon","coordinates":[[[[112.9100605,-6.8965471],[112.9099589,-6.896373],[112.9100467,-6.896043],[112.9102591,-6.8959467],[112.9103514,-6.8958367],[112.9103652,-6.8961805],[112.9102729,-6.8965426],[112.9100605,-6.8965471]]]]}},
{"type":"Feature","properties":{"FID":null,"label":"sawah","id":16},"geometry":{"type":"MultiPolygon","coordinates":[[[[112.9067826,-6.8977068],[112.906801,-6.8975785],[112.9070365,-6.8975693],[112.9070457,-6.8977801],[112.9067826,-6.8977068]]]]}},
{"type":"Feature","properties":{"FID":null,"label":"sawah","id":17},"geometry":{"type":"MultiPolygon","coordinates":[[[[112.9045396,-6.8978043],[112.9046782,-6.8976072],[112.9050013,-6.8976026],[112.9049229,-6.897818],[112.9045396,-6.8978043]]]]}},
{"type":"Feature","properties":{"FID":null,"label":"sawah","id":18},"geometry":{"type":"MultiPolygon","coordinates":[[[[112.9045812,-6.8979509],[112.9045812,-6.8978455],[112.9048813,-6.8978501],[112.9048444,-6.897983],[112.9045812,-6.8979509]]]]}},
{"type":"Feature","properties":{"FID":null,"label":"sawah","id":19},"geometry":{"type":"MultiPolygon","coordinates":[[[[112.9046043,-6.8981343],[112.9045858,-6.8979418],[112.9049367,-6.8980334],[112.9048813,-6.8981618],[112.9046043,-6.8981343]]]]}},
{"type":"Feature","properties":{"FID":null,"label":"sawah","id":20},"geometry":{"type":"MultiPolygon","coordinates":[[[[112.9043503,-6.8981801],[112.904415,-6.8978501],[112.9045535,-6.8978318],[112.9045766,-6.8981618],[112.9043503,-6.8981801]]]]}},
{"type":"Feature","properties":{"FID":null,"label":"sawah","id":21},"geometry":{"type":"MultiPolygon","coordinates":[[[[112.9044058,-6.8974605],[112.9045443,-6.8971305],[112.9046505,-6.8976118],[112.9043873,-6.8975338],[112.9044058,-6.8974605]]]]}},
{"type":"Feature","properties":{"FID":null,"label":"sawah","id":22},"geometry":{"type":"MultiPolygon","coordinates":[[[[112.9046135,-6.897213],[112.905006,-6.8972176],[112.9049967,-6.8975476],[112.9046966,-6.8975705],[112.9046135,-6.897213]]]]}},
{"type":"Feature","properties":{"FID":null,"label":"sawah","id":23},"geometry":{"type":"MultiPolygon","coordinates":[[[[112.9033161,-6.8974605],[112.9037917,-6.8975235],[112.9037717,-6.8977834],[112.9033787,-6.8977105],[112.9033161,-6.8974605]]]]}},
{"type":"Feature","properties":{"FID":null,"label":"sawah","id":24},"geometry":{"type":"MultiPolygon","coordinates":[[[[112.9033328,-6.897398],[112.9032709,-6.8971355],[112.9034791,-6.8970405],[112.903496,-6.8974036],[112.9033328,-6.897398]]]]}},
{"type":"Feature","properties":{"FID":null,"label":"sawah","id":25},"geometry":{"type":"MultiPolygon","coordinates":[[[[112.9035937,-6.8971008],[112.9040607,-6.897246],[112.9038131,-6.8975086],[112.9035599,-6.897436],[112.9035937,-6.8971008]]]]}},
{"type":"Feature","properties":{"FID":null,"label":"sawah","id":26},"geometry":{"type":"MultiPolygon","coordinates":[[[[112.9038019,-6.8977543],[112.9039425,-6.8973913],[112.9042745,-6.8975421],[112.9042126,-6.8977488],[112.9038019,-6.8977543]]]]}},
{"type":"Feature","properties":{"FID":null,"label":"sawah","id":27},"geometry":{"type":"MultiPolygon","coordinates":[[[[112.9039932,-6.897341],[112.9042182,-6.8971343],[112.9044433,-6.8971902],[112.9043251,-6.8975086],[112.9039932,-6.897341]]]]}},
{"type":"Feature","properties":{"FID":null,"label":"sawah","id":28},"geometry":{"type":"MultiPolygon","coordinates":[[[[112.9042182,-6.8977432],[112.9043083,-6.8975533],[112.9043983,-6.8978102],[112.9043533,-6.8978549],[112.9042182,-6.8977432]]]]}},
{"type":"Feature","properties":{"FID":null,"label":"sawah","id":29},"geometry":{"type":"MultiPolygon","coordinates":[[[[112.9028735,-6.8974757],[112.9029354,-6.8973193],[112.9030986,-6.8974086],[112.9030311,-6.8975762],[112.9028735,-6.8974757]]]]}},
{"type":"Feature","properties":{"FID":null,"label":"sawah","id":30},"geometry":{"type":"MultiPolygon","coordinates":[[[[112.9041526,-6.8967309],[112.9042089,-6.896541],[112.9044733,-6.8965856],[112.9042933,-6.8968649],[112.9041526,-6.8967309]]]]}},
{"type":"Feature","properties":{"FID":null,"label":"sawah","id":31},"geometry":{"type":"MultiPolygon","coordinates":[[[[112.9032669,-6.8967638],[112.9032444,-6.8964678],[112.9035763,-6.8964399],[112.903537,-6.896775],[112.9032669,-6.8967638]]]]}},
{"type":"Feature","properties":{"FID":null,"label":"sawah","id":32},"geometry":{"type":"MultiPolygon","coordinates":[[[[112.9030193,-6.8968141],[112.9030643,-6.8962891],[112.9032331,-6.8962946],[112.9032556,-6.8969258],[112.9030193,-6.8968141]]]]}},
{"type":"Feature","properties":{"FID":null,"label":"sawah","id":33},"geometry":{"type":"MultiPolygon","coordinates":[[[[112.9028899,-6.8967638],[112.9029068,-6.8962891],[112.9030306,-6.8962835],[112.9029968,-6.8968141],[112.9028899,-6.8967638]]]]}},
{"type":"Feature","properties":{"FID":null,"label":"sawah","id":34},"geometry":{"type":"MultiPolygon","coordinates":[[[[112.9026705,-6.8966465],[112.9027436,-6.8964455],[112.9028618,-6.896451],[112.9028449,-6.8967359],[112.9026705,-6.8966465]]]]}},
{"type":"Feature","properties":{"FID":null,"label":"sawah","id":35},"geometry":{"type":"MultiPolygon","coordinates":[[[[112.903717,-6.8983558],[112.9034976,-6.8982776],[112.9036198,-6.8980552],[112.9037943,-6.8980552],[112.903717,-6.8983558]]]]}},
{"type":"Feature","properties":{"FID":null,"label":"sawah","id":36},"geometry":{"type":"MultiPolygon","coordinates":[[[[112.9033385,-6.8982787],[112.9033385,-6.8980664],[112.9035748,-6.8979994],[112.9034679,-6.8983066],[112.9033385,-6.8982787]]]]}},
{"type":"Feature","properties":{"FID":null,"label":"sawah","id":37},"geometry":{"type":"MultiPolygon","coordinates":[[[[112.9040193,-6.898625],[112.9040024,-6.8983848],[112.9041487,-6.8982284],[112.904385,-6.8982563],[112.9043513,-6.8986473],[112.9040193,-6.898625]]]]}},
{"type":"Feature","properties":{"FID":null,"label":"sawah","id":38},"geometry":{"type":"MultiPolygon","coordinates":[[[[112.9021176,-6.8982116],[112.9022076,-6.8980943],[112.9025733,-6.8981669],[112.9025396,-6.8983904],[112.9021514,-6.8983178],[112.9021176,-6.8982116]]]]}},
{"type":"Feature","properties":{"FID":null,"label":"sawah","id":39},"geometry":{"type":"MultiPolygon","coordinates":[[[[112.9028434,-6.8980999],[112.9030236,-6.8976273],[112.903288,-6.8980183],[112.9030123,-6.8979904],[112.9029673,-6.8981133],[112.9028434,-6.8980999]]]]}},
{"type":"Feature","properties":{"FID":null,"label":"sawah","id":40},"geometry":{"type":"MultiPolygon","coordinates":[[[[112.904914,-6.8965996],[112.9047002,-6.8966219],[112.9048128,-6.8964152],[112.9050153,-6.896432],[112.904914,-6.8965996]]]]}},
{"type":"Feature","properties":{"FID":null,"label":"sawah","id":41},"geometry":{"type":"MultiPolygon","coordinates":[[[[112.9044077,-6.8965158],[112.9044245,-6.8961304],[112.9047846,-6.8962197],[112.9046552,-6.8965716],[112.9044077,-6.8965158]]]]}},
{"type":"Feature","properties":{"FID":null,"label":"sawah","id":42},"geometry":{"type":"MultiPolygon","coordinates":[[[[112.9039294,-6.8966666],[112.9036537,-6.8965828],[112.9035581,-6.8961806],[112.9039576,-6.8961136],[112.9040532,-6.8962756],[112.9039294,-6.8966666]]]]}},
{"type":"Feature","properties":{"FID":null,"label":"sawah","id":43},"geometry":{"type":"MultiPolygon","coordinates":[[[[112.9044358,-6.8968733],[112.9044808,-6.8966331],[112.9047002,-6.8966498],[112.9046383,-6.8968844],[112.9044358,-6.8968733]]]]}},
{"type":"Feature","properties":{"FID":null,"label":"sawah","id":44},"geometry":{"type":"MultiPolygon","coordinates":[[[[112.9050744,-6.896245],[112.9048044,-6.8961612],[112.9049113,-6.8958484],[112.9052095,-6.8959154],[112.9050744,-6.896245]]]]}},
{"type":"Feature","properties":{"FID":null,"label":"sawah","id":45},"geometry":{"type":"MultiPolygon","coordinates":[[[[112.9050182,-6.8964907],[112.9052151,-6.8960886],[112.9053164,-6.896379],[112.9051645,-6.8965019],[112.9050182,-6.8964907]]]]}},
{"type":"Feature","properties":{"FID":null,"label":"sawah","id":46},"geometry":{"type":"MultiPolygon","coordinates":[[[[112.9035216,-6.8961947],[112.9032234,-6.8961724],[112.903184,-6.8958707],[112.9033528,-6.8958651],[112.9035216,-6.8961947]]]]}},
{"type":"Feature","properties":{"FID":null,"label":"sawah","id":47},"geometry":{"type":"MultiPolygon","coordinates":[[[[112.9028914,-6.8962282],[112.9029477,-6.8959601],[112.9031446,-6.8959154],[112.9031783,-6.8962506],[112.9028914,-6.8962282]]]]}},
{"type":"Feature","properties":{"FID":null,"label":"sawah","id":48},"geometry":{"type":"MultiPolygon","coordinates":[[[[112.9044612,-6.8959154],[112.9043768,-6.8958484],[112.9044499,-6.8955188],[112.9046637,-6.8956976],[112.9044612,-6.8959154]]]]}},
{"type":"Feature","properties":{"FID":null,"label":"sawah","id":49},"geometry":{"type":"MultiPolygon","coordinates":[[[[112.9050238,-6.8970158],[112.9050407,-6.8968259],[112.9052095,-6.8968426],[112.9052376,-6.8970046],[112.9050238,-6.8970158]]]]}},
{"type":"Feature","properties":{"FID":null,"label":"sawah","id":50},"geometry":{"type":"MultiPolygon","coordinates":[[[[112.9053501,-6.8970493],[112.9052432,-6.8968315],[112.9054233,-6.8967365],[112.9054852,-6.8969208],[112.9053501,-6.8970493]]]]}}
]
}
